STARLINK-33812          
1 63879U 25094R   26164.89351804  .00001025  00000+0  93686-4 0  9993
2 63879  70.0016 351.8867 0002487 270.9778  89.1096 14.98332547 61611
STARLINK-33779          
1 63880U 25094S   26164.91021620  .00001475  00000+0  13138-3 0  9990
2 63880  70.0019 351.9524 0002824 265.5887  94.4950 14.98334688 61619
STARLINK-33905          
1 63881U 25094T   26164.93525424  .00004993  00000+0  42586-3 0  9991
2 63881  70.0014 351.6378 0002822 262.9572  97.1266 14.98340746 61622
STARLINK-34003          
1 63882U 25094U   26165.16668980  .02050667  00000+0  34820-1 0  9994
2 63882  70.0012 305.2082 0003127 269.6797  33.5060 15.47957567  5837
STARLINK-33968          
1 63883U 25094V   26164.92290479  .00003156  00000+0  27215-3 0  9993
2 63883  70.0017 351.9915 0002969 265.7838  94.2981 14.98334920 61613
STARLINK-33943          
1 63884U 25094W   26164.93105977  .00002871  00000+0  24827-3 0  9992
2 63884  70.0017 351.6219 0003079 267.4938  92.5869 14.98335878 61621
STARLINK-33858          
1 63885U 25094X   26164.95610270  .00003321  00000+0  28592-3 0  9996
2 63885  70.0013 351.7072 0002796 270.0904  89.9935 14.98339273 61621
STARLINK-33885          
1 63886U 25094Y   26164.93940774  .00002406  00000+0  20930-3 0  9991
2 63886  70.0014 351.6484 0002713 268.9380  91.1469 14.98335637 61629
STARLINK-33904          
1 63887U 25094Z   26164.93539986  .00003160  00000+0  27242-3 0  9992
2 63887  70.0016 351.6325 0002132 268.7283  91.3631 14.98336442 61629
STARLINK-33981          
1 63888U 25094AA  26164.90620766  .00001501  00000+0  13359-3 0  9998
2 63888  70.0013 351.9328 0002330 272.5259  87.5633 14.98332943 61619
STARLINK-33738          
1 63889U 25094AB  26164.89368088  .00002930  00000+0  25320-3 0  9991
2 63889  70.0016 351.8650 0002699 266.7955  93.2895 14.98336727 61838
STARLINK-34116          
1 63890U 25095A   26164.79292447  .00021936  00000+0  80411-3 0  9997
2 63890  43.0042 353.6476 0003228 278.2390  81.8096 15.27585193 62489
STARLINK-34123          
1 63891U 25095B   26164.80705768  .00022513  00000+0  82432-3 0  9992
2 63891  43.0091 353.7631 0000590 169.6648 190.4216 15.27613460 62486
STARLINK-33972          
1 63893U 25095D   26164.39289177  .00017717  00000+0  65169-3 0  9997
2 63893  43.0016 355.8026 0000790 264.3388  95.7373 15.27584955 62423
STARLINK-33973          
1 63894U 25095E   26165.20694618  .00016923  00000+0  62296-3 0  9995
2 63894  43.0126 350.7356 0000627 148.7823 211.3066 15.27587207 62556
STARLINK-34119          
1 63895U 25095F   26164.79934527  .00021096  00000+0  77397-3 0  9990
2 63895  42.9991 353.6917 0001567 285.3750  74.6928 15.27578271 62481
STARLINK-34143          
1 63896U 25095G   26164.25055291  .00026109  00000+0  95455-3 0  9999
2 63896  43.0052 356.4518 0001316 268.4243  91.6458 15.27593960 62402
STARLINK-33957          
1 63897U 25095H   26164.80320075  .00020982  00000+0  76936-3 0  9992
2 63897  43.0009 353.7234 0004631 276.4913  83.5411 15.27593550 62477
STARLINK-34120          
1 63898U 25095J   26165.20308354  .00025163  00000+0  92106-3 0  9997
2 63898  42.9991 350.6977 0000360 245.1206 114.9608 15.27570831 62552
STARLINK-34134          
1 63899U 25095K   26163.80827341  .00022810  00000+0  83497-3 0  9993
2 63899  43.0025 359.1539 0001077 266.6195  93.4533 15.27614525 62335
STARLINK-34118          
1 63900U 25095L   26164.79549128  .00020031  00000+0  73546-3 0  9996
2 63900  43.0000 353.6625 0001521 258.1407 101.9275 15.27579878 62487
STARLINK-34125          
1 63901U 25095M   26164.25824932  .00018954  00000+0  69573-3 0  9993
2 63901  43.0035 356.5113 0000842 271.2953  88.7802 15.27617282 62397
STARLINK-33955          
1 63902U 25095N   26165.20949981  .00026260  00000+0  95981-3 0  9993
2 63902  42.9948 350.7448 0002544 275.0782  84.9779 15.27598599 62546
STARLINK-34097          
1 63903U 25095P   26164.24799479  .00023394  00000+0  85585-3 0  9996
2 63903  42.9986 356.4327 0000204  12.9907 347.0949 15.27622111 62399
STARLINK-34092          
1 63904U 25095Q   26164.80063122  .00019085  00000+0  70105-3 0  9992
2 63904  43.0044 353.7039 0000322 209.1337 150.9497 15.27589732 62474
STARLINK-34114          
1 63905U 25095R   26164.80834444  .00030622  00000+0  11172-2 0  9994
2 63905  43.0055 353.7665 0000323 122.0677 238.0206 15.27595611 62472
STARLINK-33770          
1 63906U 25095S   26164.23769837  .00019097  00000+0  70136-3 0  9994
2 63906  43.0027 356.3507 0002311 268.5561  91.5026 15.27594780 62392
STARLINK-34106          
1 63907U 25095T   26164.82232735  .00026253  00000+0  95978-3 0  9995
2 63907  43.0062 352.9953 0000186  88.4366 271.6507 15.27593236 62489
STARLINK-34083          
1 63908U 25095U   26164.80448568  .00020878  00000+0  76579-3 0  9990
2 63908  43.0054 353.7361 0002197 111.7461 248.3625 15.27591983 62471
STARLINK-34066          
1 63909U 25095V   26163.80957129  .00020325  00000+0  74549-3 0  9990
2 63909  43.0006 359.1621 0004601 273.4810  86.5516 15.27599304 62324
